[{"OBJECT_NAME":"GAOFEN-9 05","OBJECT_ID":"2020-058A","EPOCH":"2026-03-10T00:01:50.876256","MEAN_MOTION":15.30293976,"ECCENTRICITY":0.0010522,"INCLINATION":97.2228,"RA_OF_ASC_NODE":111.963,"ARG_OF_PERICENTER":91.0204,"MEAN_ANOMALY":269.2242,"EPHEMERIS_TYPE":0,"CLASSIFICATION_TYPE":"U","NORAD_CAT_ID":46232,"ELEMENT_SET_NO":999,"REV_AT_EPOCH":30843,"BSTAR":0.00025120304,"MEAN_MOTION_DOT":7.299e-5,"MEAN_MOTION_DDOT":0},{"OBJECT_NAME":"STARLINK-35426","OBJECT_ID":"2025-259V","EPOCH":"2026-03-08T23:28:12.081504","MEAN_MOTION":15.2761148,"ECCENTRICITY":0.00022721,"INCLINATION":43.003,"RA_OF_ASC_NODE":278.2576,"ARG_OF_PERICENTER":278.3776,"MEAN_ANOMALY":81.6818,"EPHEMERIS_TYPE":0,"CLASSIFICATION_TYPE":"U","NORAD_CAT_ID":66441,"ELEMENT_SET_NO":999,"REV_AT_EPOCH":1938,"BSTAR":0.001072099,"MEAN_MOTION_DOT":0.00029387,"MEAN_MOTION_DDOT":0}]
